{
  "links" : {
    "next" : "https://api.nasa.gov/neo/rest/v1/feed?start_date=2008-08-16&end_date=2008-08-16&detailed=true&api_key=t0TVs3DtDT2H8Oy2Zy8m2eVrNsAVKAexjcZXUckd",
    "prev" : "https://api.nasa.gov/neo/rest/v1/feed?start_date=2008-08-14&end_date=2008-08-14&detailed=true&api_key=t0TVs3DtDT2H8Oy2Zy8m2eVrNsAVKAexjcZXUckd",
    "self" : "https://api.nasa.gov/neo/rest/v1/feed?start_date=2008-08-15&end_date=2008-08-15&detailed=true&api_key=t0TVs3DtDT2H8Oy2Zy8m2eVrNsAVKAexjcZXUckd"
  },
  "element_count" : 9,
  "near_earth_objects" : {
    "2008-08-15" : [ {
      "links" : {
        "self" : "https://api.nasa.gov/neo/rest/v1/neo/3409964?api_key=t0TVs3DtDT2H8Oy2Zy8m2eVrNsAVKAexjcZXUckd"
      },
      "neo_reference_id" : "3409964",
      "name" : "(2008 JG)",
      "nasa_jpl_url" : "http://ssd.jpl.nasa.gov/sbdb.cgi?sstr=3409964",
      "absolute_magnitude_h" : 20.8,
      "estimated_diameter" : {
        "kilometers" : {
          "estimated_diameter_min" : 0.1838886721,
          "estimated_diameter_max" : 0.411187571
        },
        "meters" : {
          "estimated_diameter_min" : 183.8886720703,
          "estimated_diameter_max" : 411.1875710413
        },
        "miles" : {
          "estimated_diameter_min" : 0.1142630881,
          "estimated_diameter_max" : 0.2555000322
        },
        "feet" : {
          "estimated_diameter_min" : 603.309310875,
          "estimated_diameter_max" : 1349.040630575
        }
      },
      "is_potentially_hazardous_asteroid" : true,
      "close_approach_data" : [ {
        "close_approach_date" : "2008-08-15",
        "epoch_date_close_approach" : 1218783600000,
        "relative_velocity" : {
          "kilometers_per_second" : "8.4843896778",
          "kilometers_per_hour" : "30543.8028399562",
          "miles_per_hour" : "18978.7312701939"
        },
        "miss_distance" : {
          "astronomical" : "0.2205855878",
          "lunar" : "85.8077926636",
          "kilometers" : "32999134",
          "miles" : "20504712"
        },
        "orbiting_body" : "Earth"
      } ],
      "orbital_data" : {
        "orbit_id" : "32",
        "orbit_determination_date" : "2017-04-06 09:03:32",
        "orbit_uncertainty" : "2",
        "minimum_orbit_intersection" : ".0497576",
        "jupiter_tisserand_invariant" : "5.797",
        "epoch_osculation" : "2458000.5",
        "eccentricity" : ".2962061287988718",
        "semi_major_axis" : "1.052079402640927",
        "inclination" : "7.906473496389842",
        "ascending_node_longitude" : "128.8405407963474",
        "orbital_period" : "394.1587791697582",
        "perihelion_distance" : ".7404470355956286",
        "perihelion_argument" : "242.293197578416",
        "aphelion_distance" : "1.363711769686226",
        "perihelion_time" : "2457881.085681769947",
        "mean_anomaly" : "109.0655767033018",
        "mean_motion" : ".9133375152985072",
        "equinox" : "J2000"
      }
    }, {
      "links" : {
        "self" : "https://api.nasa.gov/neo/rest/v1/neo/3423024?api_key=t0TVs3DtDT2H8Oy2Zy8m2eVrNsAVKAexjcZXUckd"
      },
      "neo_reference_id" : "3423024",
      "name" : "(2008 PF1)",
      "nasa_jpl_url" : "http://ssd.jpl.nasa.gov/sbdb.cgi?sstr=3423024",
      "absolute_magnitude_h" : 22.1,
      "estimated_diameter" : {
        "kilometers" : {
          "estimated_diameter_min" : 0.1010543415,
          "estimated_diameter_max" : 0.2259643771
        },
        "meters" : {
          "estimated_diameter_min" : 101.054341542,
          "estimated_diameter_max" : 225.9643771094
        },
        "miles" : {
          "estimated_diameter_min" : 0.0627922373,
          "estimated_diameter_max" : 0.140407711
        },
        "feet" : {
          "estimated_diameter_min" : 331.5431259047,
          "estimated_diameter_max" : 741.3529669956
        }
      },
      "is_potentially_hazardous_asteroid" : true,
      "close_approach_data" : [ {
        "close_approach_date" : "2008-08-15",
        "epoch_date_close_approach" : 1218783600000,
        "relative_velocity" : {
          "kilometers_per_second" : "15.5050590803",
          "kilometers_per_hour" : "55818.2126891812",
          "miles_per_hour" : "34683.2666567859"
        },
        "miss_distance" : {
          "astronomical" : "0.0445551072",
          "lunar" : "17.3319377899",
          "kilometers" : "6665349.5",
          "miles" : "4141656.25"
        },
        "orbiting_body" : "Earth"
      } ],
      "orbital_data" : {
        "orbit_id" : "26",
        "orbit_determination_date" : "2017-04-06 09:03:08",
        "orbit_uncertainty" : "1",
        "minimum_orbit_intersection" : ".00753605",
        "jupiter_tisserand_invariant" : "4.714",
        "epoch_osculation" : "2458000.5",
        "eccentricity" : ".4946765035286945",
        "semi_major_axis" : "1.359721356998399",
        "inclination" : "2.754270322813678",
        "ascending_node_longitude" : "129.6043210656755",
        "orbital_period" : "579.1263230694385",
        "perihelion_distance" : ".6870991503451389",
        "perihelion_argument" : "284.1664291025365",
        "aphelion_distance" : "2.032343563651658",
        "perihelion_time" : "2458226.235814263032",
        "mean_anomaly" : "219.6767408119563",
        "mean_motion" : ".621626035045268",
        "equinox" : "J2000"
      }
    }, {
      "links" : {
        "self" : "https://api.nasa.gov/neo/rest/v1/neo/3725154?api_key=t0TVs3DtDT2H8Oy2Zy8m2eVrNsAVKAexjcZXUckd"
      },
      "neo_reference_id" : "3725154",
      "name" : "(2015 OT78)",
      "nasa_jpl_url" : "http://ssd.jpl.nasa.gov/sbdb.cgi?sstr=3725154",
      "absolute_magnitude_h" : 22.4,
      "estimated_diameter" : {
        "kilometers" : {
          "estimated_diameter_min" : 0.0880146521,
          "estimated_diameter_max" : 0.1968067451
        },
        "meters" : {
          "estimated_diameter_min" : 88.0146520901,
          "estimated_diameter_max" : 196.8067450894
        },
        "miles" : {
          "estimated_diameter_min" : 0.0546897524,
          "estimated_diameter_max" : 0.122290004
        },
        "feet" : {
          "estimated_diameter_min" : 288.7619911632,
          "estimated_diameter_max" : 645.6914415591
        }
      },
      "is_potentially_hazardous_asteroid" : false,
      "close_approach_data" : [ {
        "close_approach_date" : "2008-08-15",
        "epoch_date_close_approach" : 1218783600000,
        "relative_velocity" : {
          "kilometers_per_second" : "6.939030077",
          "kilometers_per_hour" : "24980.5082770862",
          "miles_per_hour" : "15521.9163791706"
        },
        "miss_distance" : {
          "astronomical" : "0.207201769",
          "lunar" : "80.6014862061",
          "kilometers" : "30996942",
          "miles" : "19260608"
        },
        "orbiting_body" : "Earth"
      } ],
      "orbital_data" : {
        "orbit_id" : "24",
        "orbit_determination_date" : "2017-04-06 08:32:39",
        "orbit_uncertainty" : "5",
        "minimum_orbit_intersection" : ".176799",
        "jupiter_tisserand_invariant" : "3.406",
        "epoch_osculation" : "2458000.5",
        "eccentricity" : ".4840430016055265",
        "semi_major_axis" : "2.302213511457592",
        "inclination" : "10.23793726254991",
        "ascending_node_longitude" : "316.2736130450344",
        "orbital_period" : "1275.900549574725",
        "perihelion_distance" : "1.18784317303486",
        "perihelion_argument" : "9.359399737415286",
        "aphelion_distance" : "3.416583849880325",
        "perihelion_time" : "2458531.943150970473",
        "mean_anomaly" : "210.0513739780582",
        "mean_motion" : ".2821536522732849",
        "equinox" : "J2000"
      }
    } ]
  }
}